NORAD_CAT_ID,OBJECT_NAME,OBJECT_TYPE,EPOCH,MEAN_MOTION,ECCENTRICITY,INCLINATION,RA_OF_ASC_NODE,ARG_OF_PERICENTER,MEAN_ANOMALY,BSTAR,MEAN_MOTION_DOT,MEAN_MOTION_DDOT,TLE_LINE0,TLE_LINE1,TLE_LINE2,SEMIMAJOR_AXIS,PERIOD,APOGEE,PERIGEE,DECAYED
54760.0,STARLINK-5220,PAYLOAD,2024-01-05 04:31:28,15.08806753,0.0001806,53.2185,10.9673,106.8504,253.2687,0.00026725,3.964e-05,0.0,0 STARLINK-5220,1 54760U 22175C   24005.18852673  .00003964  00000-0  26725-3 0  9997,2 54760  53.2185  10.9673 0001806 106.8504 253.2687 15.08806753 57810,6917.982,95.44,541.096,538.598,0.0
54760.0,STARLINK-5220,PAYLOAD,2024-01-05 09:17:38,15.08828991,0.0001475,53.2186,10.0751,94.2178,265.8983,-0.0001039,-1.941e-05,0.0,0 STARLINK-5220,1 54760U 22175C   24005.38724925 -.00001941  00000-0 -10390-3 0  9993,2 54760  53.2186  10.0751 0001475  94.2178 265.8983 15.08828991 57847,6917.914,95.438,540.799,538.759,0.0
54760.0,STARLINK-5220,PAYLOAD,2024-01-06 04:22:15,15.0883973,0.0001224,53.2175,6.5088,96.6523,263.4608,8.355e-05,1.042e-05,0.0,0 STARLINK-5220,1 54760U 22175C   24006.18211947  .00001042  00000-0  83550-4 0  9996,2 54760  53.2175   6.5088 0001224  96.6523 263.4608 15.08839730 57964,6917.881,95.438,540.593,538.899,0.0
54760.0,STARLINK-5220,PAYLOAD,2024-01-06 09:08:23,15.08847929,0.0001422,53.2183,5.6156,92.3712,267.7443,0.00015339,2.155e-05,0.0,0 STARLINK-5220,1 54760U 22175C   24006.38083296  .00002155  00000-0  15339-3 0  9997,2 54760  53.2183   5.6156 0001422  92.3712 267.7443 15.08847929 57998,6917.856,95.437,540.705,538.737,0.0
54760.0,STARLINK-5220,PAYLOAD,2024-01-07 04:13:00,15.08860442,0.0001599,53.2189,2.0478,94.8313,265.2862,0.00035327,5.342e-05,0.0,0 STARLINK-5220,1 54760U 22175C   24007.17569733  .00005342  00000-0  35327-3 0  9990,2 54760  53.2189   2.0478 0001599  94.8313 265.2862 15.08860442 58119,6917.818,95.436,540.789,538.577,0.0
54760.0,STARLINK-5220,PAYLOAD,2024-01-07 05:48:23,15.08865077,0.0001406,53.2179,1.7509,97.1646,262.9506,0.00034135,5.152e-05,0.0,0 STARLINK-5220,1 54760U 22175C   24007.24193460  .00005152  00000-0  34135-3 0  9993,2 54760  53.2179   1.7509 0001406  97.1646 262.9506 15.08865077 60280,6917.804,95.436,540.641,538.696,0.0
54760.0,STARLINK-5220,PAYLOAD,2024-01-08 04:03:48,15.08850327,0.0002003,53.2188,357.5857,137.6224,222.4924,-3.74e-05,-8.84e-06,0.0,0 STARLINK-5220,1 54760U 22175C   24008.16930762 -.00000884  00000-0 -37400-4 0  9997,2 54760  53.2188 357.5857 0002003 137.6224 222.4924 15.08850327 58266,6917.849,95.437,541.099,538.328,0.0
54760.0,STARLINK-5220,PAYLOAD,2024-01-08 08:49:58,15.08843214,0.0001271,53.2188,356.694,108.4958,251.6172,-8.4168e-05,-1.627e-05,0.0,0 STARLINK-5220,1 54760U 22175C   24008.36803400 -.00001627  00000-0 -84168-4 0  9996,2 54760  53.2188 356.6940 0001271 108.4958 251.6172 15.08843214 58294,6917.871,95.437,540.615,538.856,0.0
54760.0,STARLINK-5220,PAYLOAD,2024-01-09 08:40:44,15.08853135,0.0001554,53.2187,352.2308,121.1094,239.0051,-0.00019246,-3.351e-05,0.0,0 STARLINK-5220,1 54760U 22175C   24009.36163031 -.00003351  00000-0 -19246-3 0  9996,2 54760  53.2187 352.2308 0001554 121.1094 239.0051 15.08853135 60607,6917.84,95.437,540.78,538.63,0.0
54760.0,STARLINK-5220,PAYLOAD,2024-01-09 22:59:13,15.08835426,0.0001314,53.2187,349.555,108.1062,252.0073,0.00014217,1.975e-05,0.0,0 STARLINK-5220,1 54760U 22175C   24009.95779015  .00001975  00000-0  14217-3 0  9997,2 54760  53.2187 349.5550 0001314 108.1062 252.0073 15.08835426 60690,6917.894,95.438,540.668,538.85,0.0
54760.0,STARLINK-5220,PAYLOAD,2024-01-10 08:31:31,15.08811471,0.0001585,53.2195,347.7714,105.2172,254.8996,0.00077138,0.00012,0.0,0 STARLINK-5220,1 54760U 22175C   24010.35523140  .00012000  00000-0  77138-3 0  9991,2 54760  53.2195 347.7714 0001585 105.2172 254.8996 15.08811471 58595,6917.968,95.439,540.929,538.736,0.0
54760.0,STARLINK-5220,PAYLOAD,2024-01-11 03:36:09,15.0884049,0.0001849,53.2183,344.2017,118.1336,241.9843,7.8495e-05,9.61e-06,0.0,0 STARLINK-5220,1 54760U 22175C   24011.15011339  .00000961  00000-0  78495-4 0  9993,2 54760  53.2183 344.2017 0001849 118.1336 241.9843 15.08840490 58713,6917.879,95.438,541.023,538.465,0.0
54760.0,STARLINK-5220,PAYLOAD,2024-01-11 08:22:19,15.08840522,0.0001567,53.2187,343.3118,102.1786,257.9382,8.451e-05,1.057e-05,0.0,0 STARLINK-5220,1 54760U 22175C   24011.34883494  .00001057  00000-0  84510-4 0  9995,2 54760  53.2187 343.3118 0001567 102.1786 257.9382 15.08840522 60903,6917.879,95.438,540.828,538.66,0.0
54760.0,STARLINK-5220,PAYLOAD,2024-01-12 06:37:43,15.08850626,0.0001705,53.2195,339.1449,102.8832,257.2351,-2.8853e-06,-3.34e-06,0.0,0 STARLINK-5220,1 54760U 22175C   24012.27619241 -.00000334  00000-0 -28853-5 0  9993,2 54760  53.2195 339.1449 0001705 102.8832 257.2351 15.08850626 58884,6917.848,95.437,540.892,538.533,0.0
54760.0,STARLINK-5220,PAYLOAD,2024-01-12 20:56:12,15.08837465,0.0002453,53.2196,336.4809,75.6264,284.5001,4.337e-05,4.02e-06,0.0,0 STARLINK-5220,1 54760U 22175C   24012.87236136  .00000402  00000-0  43370-4 0  9991,2 54760  53.2196 336.4809 0002453  75.6264 284.5001 15.08837465 61135,6917.888,95.438,541.45,538.056,0.0
54760.0,STARLINK-5220,PAYLOAD,2024-01-13 04:53:07,15.0883767,0.0001826,53.2189,334.9866,96.0354,264.0846,9.7934e-05,1.271e-05,0.0,0 STARLINK-5220,1 54760U 22175C   24013.20356213  .00001271  00000-0  97934-4 0  9998,2 54760  53.2189 334.9866 0001826  96.0354 264.0846 15.08837670 59026,6917.888,95.438,541.016,538.489,0.0
54760.0,STARLINK-5220,PAYLOAD,2024-01-13 06:28:30,15.08840524,0.0002005,53.2191,334.6888,111.472,248.6486,0.00012823,1.753e-05,0.0,0 STARLINK-5220,1 54760U 22175C   24013.26979904  .00001753  00000-0  12823-3 0  9990,2 54760  53.2191 334.6888 0002005 111.4720 248.6486 15.08840524 61190,6917.879,95.438,541.131,538.357,0.0
54760.0,STARLINK-5220,PAYLOAD,2024-01-14 06:19:17,15.08848889,0.0001769,53.2197,330.223,88.7169,271.4026,0.00010611,1.401e-05,0.0,0 STARLINK-5220,1 54760U 22175C   24014.26339922  .00001401  00000-0  10611-3 0  9994,2 54760  53.2197 330.2230 0001769  88.7169 271.4026 15.08848889 59180,6917.853,95.437,540.942,538.494,0.0
54760.0,STARLINK-5220,PAYLOAD,2024-01-15 02:59:18,15.08845002,0.0002118,53.2189,326.3621,79.2438,280.8792,0.00014598,2.036e-05,0.0,0 STARLINK-5220,1 54760U 22175C   24015.12452460  .00002036  00000-0  14598-3 0  9996,2 54760  53.2189 326.3621 0002118  79.2438 280.8792 15.08845002 59317,6917.865,95.437,541.195,538.265,0.0
54760.0,STARLINK-5220,PAYLOAD,2024-01-15 06:10:04,15.0884983,0.000219,53.2183,325.7664,98.5989,261.5252,0.00018501,2.658e-05,0.0,0 STARLINK-5220,1 54760U 22175C   24015.25700004  .00002658  00000-0  18501-3 0  9998,2 54760  53.2183 325.7664 0002190  98.5989 261.5252 15.08849830 61498,6917.85,95.437,541.23,538.2,0.0
54760.0,STARLINK-5220,PAYLOAD,2024-01-15 23:39:19,15.08839952,0.0001737,53.2195,322.4897,103.9205,256.198,-1.3052e-05,-4.96e-06,0.0,0 STARLINK-5220,1 54760U 22175C   24015.98564493 -.00000496  00000-0 -13052-4 0  9995,2 54760  53.2195 322.4897 0001737 103.9205 256.1980 15.08839952 59445,6917.881,95.438,540.947,538.544,0.0
54760.0,STARLINK-5220,PAYLOAD,2024-01-16 06:00:51,15.08847342,0.0002075,53.2194,321.301,117.2341,242.8863,3.9468e-05,3.4e-06,0.0,0 STARLINK-5220,1 54760U 22175C   24016.25059974  .00000340  00000-0  39468-4 0  9994,2 54760  53.2194 321.3010 0002075 117.2341 242.8863 15.08847342 59482,6917.858,95.437,541.158,538.287,0.0
54760.0,STARLINK-5220,PAYLOAD,2024-01-17 02:40:52,15.08846003,0.0001723,53.2194,317.4422,112.4976,247.6199,-7.2215e-05,-1.437e-05,0.0,0 STARLINK-5220,1 54760U 22175C   24017.11172364 -.00001437  00000-0 -72215-4 0  9996,2 54760  53.2194 317.4422 0001723 112.4976 247.6199 15.08846003 59618,6917.862,95.437,540.919,538.535,0.0
54760.0,STARLINK-5220,PAYLOAD,2024-01-18 02:31:40,15.08840221,0.0001575,53.2179,312.982,108.2103,251.9061,5.3957e-05,5.71e-06,0.0,0 STARLINK-5220,1 54760U 22175C   24018.10532756  .00000571  00000-0  53957-4 0  9999,2 54760  53.2179 312.9820 0001575 108.2103 251.9061 15.08840221 59761,6917.88,95.438,540.834,538.655,0.0
54760.0,STARLINK-5220,PAYLOAD,2024-01-19 00:47:04,15.08845572,0.0001316,53.2173,308.8199,105.3655,254.7483,7.825e-05,9.58e-06,0.0,0 STARLINK-5220,1 54760U 22175C   24019.03268527  .00000958  00000-0  78250-4 0  9996,2 54760  53.2173 308.8199 0001316 105.3655 254.7483 15.08845572 62061,6917.863,95.437,540.639,538.818,0.0
54760.0,STARLINK-5220,PAYLOAD,2024-01-19 23:02:27,15.08854345,0.0001386,53.2173,304.6562,113.8598,246.2539,0.00015606,2.198e-05,0.0,0 STARLINK-5220,1 54760U 22175C   24019.96003484  .00002198  00000-0  15606-3 0  9990,2 54760  53.2173 304.6562 0001386 113.8598 246.2539 15.08854345 62208,6917.837,95.437,540.66,538.743,0.0
54760.0,STARLINK-5220,PAYLOAD,2024-01-20 03:48:35,15.08871718,0.0001396,53.2181,303.7643,96.5671,263.548,0.00031546,4.74e-05,0.0,0 STARLINK-5220,1 54760U 22175C   24020.15873970  .00004740  00000-0  31546-3 0  9994,2 54760  53.2181 303.7643 0001396  96.5671 263.5480 15.08871718 60070,6917.783,95.436,540.614,538.683,0.0
54760.0,STARLINK-5220,PAYLOAD,2024-01-20 05:23:58,15.08871404,0.0001493,53.2184,303.4663,92.2505,267.8658,0.00031064,4.663e-05,0.0,0 STARLINK-5220,1 54760U 22175C   24020.22497966  .00004663  00000-0  31064-3 0  9998,2 54760  53.2184 303.4663 0001493  92.2505 267.8658 15.08871404 62246,6917.784,95.436,540.682,538.617,0.0
54760.0,STARLINK-5220,PAYLOAD,2024-01-20 22:53:15,15.08830507,0.0001113,53.2178,300.1955,108.4401,251.6713,-0.00013261,-2.397e-05,0.0,0 STARLINK-5220,1 54760U 22175C   24020.95365556 -.00002397  00000-0 -13261-3 0  9990,2 54760  53.2178 300.1955 0001113 108.4401 251.6713 15.08830507 62355,6917.909,95.438,540.544,539.004,0.0
54760.0,STARLINK-5220,PAYLOAD,2024-01-21 02:04:01,15.08834448,0.0001512,53.2184,299.5908,123.7426,236.371,-0.00013098,-2.372e-05,0.0,0 STARLINK-5220,1 54760U 22175C   24021.08613160 -.00002372  00000-0 -13098-3 0  9993,2 54760  53.2184 299.5908 0001512 123.7426 236.3710 15.08834448 60219,6917.897,95.438,540.808,538.716,0.0
